LYNK TOWER 6            
1 59123U 24043AB  26068.89488777  .00011440  00000+0  40142-3 0  9996
2 59123  97.5426 204.1954 0009749 232.0253 128.0107 15.29548678111845
STARLINK-34846          
1 66972U 25288P   26068.91434803  .00037740  00000+0  13732-2 0  9997
2 66972  42.9990  22.0204 0000634 163.4143 196.6729 15.27599691 15325
